{"type": "FeatureCollection", "features": [ {"type": "Feature", "properties": {"norad_id": 34546, "name": "COSMOS 2251 DEB", "group": "cosmos-2251-debris", "lat": 73.17299042361186, "lon": -20.641372314958467, "alt_km": 736.6882258804508, "timestamp": "2025-12-02T13:52:17.655825+00:00", "meta": {"OBJECT_NAME": "COSMOS 2251 DEB", "OBJECT_ID": "1993-036UG", "EPOCH": "2025-12-01T23:04:41.348352", "MEAN_MOTION": 14.45325488, "ECCENTRICITY": 0.00216513, "INCLINATION": 74.0312, "RA_OF_ASC_NODE": 269.2805, "ARG_OF_PERICENTER": 344.1996, "MEAN_ANOMALY": 134.3223, "EPHEMERIS_TYPE": 0, "CLASSIFICATION_TYPE": "U", "NORAD_CAT_ID": 34546, "ELEMENT_SET_NO": 999, "REV_AT_EPOCH": 87870, "BSTAR": 0.00083166438, "MEAN_MOTION_DOT": 2.904e-05, "MEAN_MOTION_DDOT": 0}, "tle": {"line1": "1 34546U 93036UG  25335.96158968  .00002904  00000+0  83166-3 0  9994", "line2": "2 34546  74.0312 269.2805 0021651 344.1996 134.3223 14.45325488878706"}}, "geometry": {"type": "Point", "coordinates": [-20.641372314958467, 73.17299042361186]}}, {"type": "Feature", "properties": {"norad_id": 34547, "name": "COSMOS 2251 DEB", "group": "cosmos-2251-debris", "lat": 14.306179860139276, "lon": 124.68783003514667, "alt_km": 668.9548046022956, "timestamp": "2025-12-02T13:52:17.655835+00:00", "meta": {"OBJECT_NAME": "COSMOS 2251 DEB", "OBJECT_ID": "1993-036UH", "EPOCH": "2025-12-01T11:42:14.123808", "MEAN_MOTION": 14.71865673, "ECCENTRICITY": 0.0019031, "INCLINATION": 74.0293, "RA_OF_ASC_NODE": 122.6199, "ARG_OF_PERICENTER": 202.969, "MEAN_ANOMALY": 157.0633, "EPHEMERIS_TYPE": 0, "CLASSIFICATION_TYPE": "U", "NORAD_CAT_ID": 34547, "ELEMENT_SET_NO": 999, "REV_AT_EPOCH": 88356, "BSTAR": 0.0022907065, "MEAN_MOTION_DOT": 0.00014375, "MEAN_MOTION_DDOT": 0}, "tle": {"line1": "1 34547U 93036UH  25335.48766347  .00014375  00000+0  22907-2 0  9998", "line2": "2 34547  74.0293 122.6199 0019031 202.9690 157.0633 14.71865673883565"}}, "geometry": {"type": "Point", "coordinates": [124.68783003514667, 14.306179860139276]}}, {"type": "Feature", "properties": {"norad_id": 34553, "name": "COSMOS 2251 DEB", "group": "cosmos-2251-debris", "lat": 71.71654175554843, "lon": -88.67033295440868, "alt_km": 706.1027306958413, "timestamp": "2025-12-02T13:52:17.655846+00:00", "meta": {"OBJECT_NAME": "COSMOS 2251 DEB", "OBJECT_ID": "1993-036UP", "EPOCH": "2025-12-02T02:40:06.218112", "MEAN_MOTION": 14.57554292, "ECCENTRICITY": 0.00197506, "INCLINATION": 74.0258, "RA_OF_ASC_NODE": 212.1081, "ARG_OF_PERICENTER": 290.3209, "MEAN_ANOMALY": 222.2069, "EPHEMERIS_TYPE": 0, "CLASSIFICATION_TYPE": "U", "NORAD_CAT_ID": 34553, "ELEMENT_SET_NO": 999, "REV_AT_EPOCH": 87941, "BSTAR": 0.0013243966, "MEAN_MOTION_DOT": 6.018e-05, "MEAN_MOTION_DDOT": 0}, "tle": {"line1": "1 34553U 93036UP  25336.11118308  .00006018  00000+0  13244-2 0  9993", "line2": "2 34553  74.0258 212.1081 0019750 290.3209 222.2069 14.57554292879416"}}, "geometry": {"type": "Point", "coordinates": [-88.67033295440868, 71.71654175554843]}}, {"type": "Feature", "properties": {"norad_id": 34554, "name": "COSMOS 2251 DEB", "group": "cosmos-2251-debris", "lat": -7.683082562633714, "lon": 139.91646800253827, "alt_km": 784.5362572676395, "timestamp": "2025-12-02T13:52:17.655856+00:00", "meta": {"OBJECT_NAME": "COSMOS 2251 DEB", "OBJECT_ID": "1993-036UQ", "EPOCH": "2025-12-01T09:20:45.697920", "MEAN_MOTION": 14.37898426, "ECCENTRICITY": 0.0022484, "INCLINATION": 74.0383, "RA_OF_ASC_NODE": 319.8912, "ARG_OF_PERICENTER": 25.0475, "MEAN_ANOMALY": 132.7125, "EPHEMERIS_TYPE": 0, "CLASSIFICATION_TYPE": "U", "NORAD_CAT_ID": 34554, "ELEMENT_SET_NO": 999, "REV_AT_EPOCH": 87592, "BSTAR": 0.00040434985, "MEAN_MOTION_DOT": 1.198e-05, "MEAN_MOTION_DDOT": 0}, "tle": {"line1": "1 34554U 93036UQ  25335.38941780  .00001198  00000+0  40435-3 0  9997", "line2": "2 34554  74.0383 319.8912 0022484  25.0475 132.7125 14.37898426875928"}}, "geometry": {"type": "Point", "coordinates": [139.91646800253827, -7.683082562633714]}}, {"type": "Feature", "properties": {"norad_id": 34556, "name": "COSMOS 2251 DEB", "group": "cosmos-2251-debris", "lat": -20.931028443108286, "lon": 138.5235773104498, "alt_km": 647.5542170558974, "timestamp": "2025-12-02T13:52:17.655867+00:00", "meta": {"OBJECT_NAME": "COSMOS 2251 DEB", "OBJECT_ID": "1993-036US", "EPOCH": "2025-12-01T22:27:40.520160", "MEAN_MOTION": 14.77241629, "ECCENTRICITY": 0.00093013, "INCLINATION": 74.015, "RA_OF_ASC_NODE": 146.0785, "ARG_OF_PERICENTER": 204.2469, "MEAN_ANOMALY": 320.6588, "EPHEMERIS_TYPE": 0, "CLASSIFICATION_TYPE": "U", "NORAD_CAT_ID": 34556, "ELEMENT_SET_NO": 999, "REV_AT_EPOCH": 88169, "BSTAR": 0.0025039077, "MEAN_MOTION_DOT": 0.00017778, "MEAN_MOTION_DDOT": 0}, "tle": {"line1": "1 34556U 93036US  25335.93588565  .00017778  00000+0  25039-2 0  9991", "line2": "2 34556  74.0150 146.0785 0009301 204.2469 320.6588 14.77241629881690"}}, "geometry": {"type": "Point", "coordinates": [138.5235773104498, -20.931028443108286]}}, {"type": "Feature", "properties": {"norad_id": 34560, "name": "COSMOS 2251 DEB", "group": "cosmos-2251-debris", "lat": 69.53256068305826, "lon": -147.9123262289736, "alt_km": 659.0735787893109, "timestamp": "2025-12-02T13:52:17.655877+00:00", "meta": {"OBJECT_NAME": "COSMOS 2251 DEB", "OBJECT_ID": "1993-036UW", "EPOCH": "2025-12-01T23:31:39.635904", "MEAN_MOTION": 14.71677456, "ECCENTRICITY": 0.0015451, "INCLINATION": 74.0163, "RA_OF_ASC_NODE": 163.0799, "ARG_OF_PERICENTER": 243.63, "MEAN_ANOMALY": 268.3545, "EPHEMERIS_TYPE": 0, "CLASSIFICATION_TYPE": "U", "NORAD_CAT_ID": 34560, "ELEMENT_SET_NO": 999, "REV_AT_EPOCH": 88093, "BSTAR": 0.0022457857, "MEAN_MOTION_DOT": 0.00014018, "MEAN_MOTION_DDOT": 0}, "tle": {"line1": "1 34560U 93036UW  25335.98031986  .00014018  00000+0  22458-2 0  9997", "line2": "2 34560  74.0163 163.0799 0015451 243.6300 268.3545 14.71677456880939"}}, "geometry": {"type": "Point", "coordinates": [-147.9123262289736, 69.53256068305826]}}, {"type": "Feature", "properties": {"norad_id": 34563, "name": "COSMOS 2251 DEB", "group": "cosmos-2251-debris", "lat": 49.178984684595356, "lon": -117.97236989068489, "alt_km": 733.3016841309845, "timestamp": "2025-12-02T13:52:17.655888+00:00", "meta": {"OBJECT_NAME": "COSMOS 2251 DEB", "OBJECT_ID": "1993-036UZ", "EPOCH": "2025-12-01T19:42:09.660960", "MEAN_MOTION": 14.46450669, "ECCENTRICITY": 0.0013741, "INCLINATION": 74.0388, "RA_OF_ASC_NODE": 224.0914, "ARG_OF_PERICENTER": 318.5063, "MEAN_ANOMALY": 112.859, "EPHEMERIS_TYPE": 0, "CLASSIFICATION_TYPE": "U", "NORAD_CAT_ID": 34563, "ELEMENT_SET_NO": 999, "REV_AT_EPOCH": 88039, "BSTAR": 0.00049499956, "MEAN_MOTION_DOT": 1.755e-05, "MEAN_MOTION_DDOT": 0}, "tle": {"line1": "1 34563U 93036UZ  25335.82094515  .00001755  00000+0  49500-3 0  9992", "line2": "2 34563  74.0388 224.0914 0013741 318.5063 112.8590 14.46450669880396"}}, "geometry": {"type": "Point", "coordinates": [-117.97236989068489, 49.178984684595356]}}, {"type": "Feature", "properties": {"norad_id": 34564, "name": "COSMOS 2251 DEB", "group": "cosmos-2251-debris", "lat": 40.99046298802846, "lon": -88.78202610409515, "alt_km": 742.5954707590718, "timestamp": "2025-12-02T13:52:17.655898+00:00", "meta": {"OBJECT_NAME": "COSMOS 2251 DEB", "OBJECT_ID": "1993-036VA", "EPOCH": "2025-12-02T05:54:47.449728", "MEAN_MOTION": 14.40659715, "ECCENTRICITY": 0.00185862, "INCLINATION": 74.0328, "RA_OF_ASC_NODE": 257.4245, "ARG_OF_PERICENTER": 3.3651, "MEAN_ANOMALY": 120.4925, "EPHEMERIS_TYPE": 0, "CLASSIFICATION_TYPE": "U", "NORAD_CAT_ID": 34564, "ELEMENT_SET_NO": 999, "REV_AT_EPOCH": 87855, "BSTAR": 0.00037243861, "MEAN_MOTION_DOT": 1.165e-05, "MEAN_MOTION_DDOT": 0}, "tle": {"line1": "1 34564U 93036VA  25336.24638252  .00001165  00000+0  37244-3 0  9999", "line2": "2 34564  74.0328 257.4245 0018586   3.3651 120.4925 14.40659715878551"}}, "geometry": {"type": "Point", "coordinates": [-88.78202610409515, 40.99046298802846]}}, {"type": "Feature", "properties": {"norad_id": 34567, "name": "COSMOS 2251 DEB", "group": "cosmos-2251-debris", "lat": -20.223430176467016, "lon": 169.01760058105705, "alt_km": 813.9957301248442, "timestamp": "2025-12-02T13:52:17.655908+00:00", "meta": {"OBJECT_NAME": "COSMOS 2251 DEB", "OBJECT_ID": "1993-036VD", "EPOCH": "2025-12-02T01:03:00.429408", "MEAN_MOTION": 14.23999079, "ECCENTRICITY": 0.00747013, "INCLINATION": 74.04, "RA_OF_ASC_NODE": 176.0304, "ARG_OF_PERICENTER": 252.5589, "MEAN_ANOMALY": 228.0525, "EPHEMERIS_TYPE": 0, "CLASSIFICATION_TYPE": "U", "NORAD_CAT_ID": 34567, "ELEMENT_SET_NO": 999, "REV_AT_EPOCH": 86972, "BSTAR": 0.00022992069, "MEAN_MOTION_DOT": 5.17e-06, "MEAN_MOTION_DDOT": 0}, "tle": {"line1": "1 34567U 93036VD  25336.04375497  .00000517  00000+0  22992-3 0  9993", "line2": "2 34567  74.0400 176.0304 0074701 252.5589 228.0525 14.23999079869727"}}, "geometry": {"type": "Point", "coordinates": [169.01760058105705, -20.223430176467016]}}, {"type": "Feature", "properties": {"norad_id": 34569, "name": "COSMOS 2251 DEB", "group": "cosmos-2251-debris", "lat": 56.599812654122815, "lon": 10.697124361437538, "alt_km": 768.0193772789753, "timestamp": "2025-12-02T13:52:17.655918+00:00", "meta": {"OBJECT_NAME": "COSMOS 2251 DEB", "OBJECT_ID": "1993-036VF", "EPOCH": "2025-12-02T02:05:09.434400", "MEAN_MOTION": 14.2470228, "ECCENTRICITY": 0.01568133, "INCLINATION": 73.9904, "RA_OF_ASC_NODE": 217.3969, "ARG_OF_PERICENTER": 48.2546, "MEAN_ANOMALY": 72.0417, "EPHEMERIS_TYPE": 0, "CLASSIFICATION_TYPE": "U", "NORAD_CAT_ID": 34569, "ELEMENT_SET_NO": 999, "REV_AT_EPOCH": 86816, "BSTAR": 0.00066040139, "MEAN_MOTION_DOT": 1.721e-05, "MEAN_MOTION_DDOT": 0}, "tle": {"line1": "1 34569U 93036VF  25336.08691475  .00001721  00000+0  66040-3 0  9996", "line2": "2 34569  73.9904 217.3969 0156813  48.2546  72.0417 14.24702280868161"}}, "geometry": {"type": "Point", "coordinates": [10.697124361437538, 56.599812654122815]}}]}